#aV2012  1  6  0  0   .00000000      96 DD+AD WGS84 FIT  NGA
## 1669 432000.00000000   900.00000000 55932  .0000000000000
+   31     1  2  3  4  5  6  7  8  9 10 11 12 13 14 15 16 17
+         18 19 20 21 22 23 25 26 27 28 29 30 31 32  0  0  0
+          0  0  0  0  0  0  0  0  0  0  0  0  0  0  0  0  0
+          0  0  0  0  0  0  0  0  0  0  0  0  0  0  0  0  0
+          0  0  0  0  0  0  0  0  0  0  0  0  0  0  0  0  0
++         0  0  0  0  0  0  0  0  0  0  0  0  0  0  0  0  0
++         0  0  0  0  0  0  0  0  0  0  0  0  0  0  0  0  0
++         0  0  0  0  0  0  0  0  0  0  0  0  0  0  0  0  0
++         0  0  0  0  0  0  0  0  0  0  0  0  0  0  0  0  0
++         0  0  0  0  0  0  0  0  0  0  0  0  0  0  0  0  0
%c cc cc ccc ccc cccc cccc cccc cccc ccccc ccccc ccccc ccccc
%c cc cc ccc ccc cccc cccc cccc cccc ccccc ccccc ccccc ccccc
%f  0.0000000  0.000000000  0.00000000000  0.000000000000000
%f  0.0000000  0.000000000  0.00000000000  0.000000000000000
%i    0    0    0    0      0      0      0      0         0
%i    0    0    0    0      0      0      0      0         0
/*      NGA, ST. LOUIS,MO.                                  
/*   EPHEMERIS COMPUTED FROM  3 DAYS OF DATA                
/* CCCCCCCCCCCCCCCCCCCCCCCCCCCCCCCCCCCCCCCCCCCCCCCCCCCCCCCCC
/* CCCCCCCCCCCCCCCCCCCCCCCCCCCCCCCCCCCCCCCCCCCCCCCCCCCCCCCCC
*  2012  1  6  4 30   .00000000                                                 
P  1 -16529.292553 -13375.101928 -15940.680820    170.733810                    
V  1  20291.189340    649.134057 -21595.564862       .137191                    
P  2  -8143.754308  14385.692620  20786.179556    373.469609                    
V  2 -26074.849547  -4156.500536  -7871.812484       .016571                    
P  3   8896.491606 -24236.703881  -6006.167179    818.345938                    
V  3   6873.174849  -4279.983659  29990.264583       .050121                    
P  4 -20754.877733   7973.468869  14528.823013     54.970332                    
V  4 -18300.462756  -4944.743653 -22718.858766       .113479                    
P  5    189.711686  23456.729431  12312.553701   -267.076699                    
V  5  -8441.918586 -13542.736306  26001.550677      -.047037                    
P  6  13605.627334 -22531.394786  -2083.840275     22.014645                    
V  6   4721.370077   -196.460414  31253.434080       .031648                    
P  7 -25593.121186  -6482.868815   3947.053464     48.058682                    
V  7   5198.611832  -1373.020418  31395.951527       .025115                    
P  8 -25711.031413   -859.088344  -7658.792626       .317566                    
V  8  -9129.931547  -3248.181064  30219.785260       .001852                    
P  9  12560.466236  14283.963491 -19073.830127    129.911889                    
V  9 -22983.109693  -1798.095978 -17000.130559       .024737                    
P 10 -13389.587446   7845.136832  21286.038293    -24.656930                    
V 10 -10451.715198 -25640.256996   3234.223708      -.014341                    
P 11 -10725.572580 -14778.586375 -19737.807200   -220.171049                    
V 11  24134.168549  -4624.926323  -9502.897457      -.035799                    
P 12  11627.862077  23742.684156   3426.835544     44.926679                    
V 12   -399.019731   4773.665448 -31628.746991       .022337                    
P 13 -15565.952594  -3645.472379  21089.327185    232.283186                    
V 13  17897.823630 -20231.457773   9570.565726      -.020768                    
P 14  20434.166908 -14095.263535  -9073.727755    188.869122                    
V 14  -6158.546623  10279.461956 -29403.727683       .015823                    
P 15   1885.972756  19294.384267 -18065.068908    -95.178479                    
V 15 -15217.293936  17425.777222  17220.143951       .007572                    
P 16   1087.513604 -22879.809182  13194.251534   -217.495853                    
V 16   7641.441571  15108.969965  25893.136880      -.017967                    
P 17 -20400.358023  12364.644233 -11260.003217    156.442394                    
V 17   7322.036631 -12918.629775 -27312.514013      -.021147                    
P 18  17615.641277   9533.482142 -17273.830048    175.390967                    
V 18   6407.266329  21733.963483  17810.904445       .018390                    
P 19   2339.834047 -20124.237805 -17011.568858   -222.690190                    
V 19  16152.095544 -14603.797197  19901.801386      -.038813                    
P 20 -13841.524316 -22255.826515   4389.561531     59.473453                    
V 20    877.807017  -6769.744035 -30370.103643       .007834                    
P 21  26589.099258   3985.683799    292.703560   -195.696071                    
V 21   -294.466903   3230.162512  30698.550420      -.025733                    
P 22  14262.923239  -6923.670819 -21132.437871    143.006613                    
V 22  10221.067213  25394.044191  -1521.212341       .000975                    
P 23  -8883.465603 -12862.626783  21456.119557    244.401809                    
V 23  17415.831239 -20939.014650  -5702.170589      -.033402                    
P 25  16550.387302  16311.499265  12877.863906     30.904591                    
V 25   4445.317735  15886.717131 -25749.503360       .002418                    
P 26 -10470.139823  21994.130961 -10696.506435   -288.559751                    
V 26 -10050.263535   8140.369078  28547.528319      -.140863                    
P 27   5916.855819  14552.552633 -20853.044399    343.361985                    
V 27 -27764.985607  -2097.479075  -8652.893094       .038971                    
P 28 -14529.794593   2545.275630 -21558.343068    100.012228                    
V 28  -9496.611406 -27004.209595   2900.668443       .036849                    
P 29  15142.271940   5013.873092  21295.534417    272.539189                    
V 29 -16835.991244  20976.302667   7091.459751       .033857                    
P 30   6628.597746 -16499.753970  19372.581966       .086617                    
V 30  13138.034071  21756.242703  13793.966321      -.119688                    
P 31  18633.037434  -8790.263858  17095.934007    191.957031                    
V 31  20764.456041   4332.073486 -20429.927008       .048302                    
P 32  -6777.942641 -25870.799133  -1724.575893   -388.411852                    
V 32   3280.988005   1533.959263 -31177.352311      -.056867                    
EOF
